{
  "type": "FeatureCollection",
  "features": [
    {
      "type": "Feature",
      "properties": {
        "norad_id": 66596,
        "name": "STARLINK-35811",
        "group": "last-30-days",
        "lat": 41.76306053581623,
        "lon": -89.50953030816584,
        "alt_km": 438.6814634164539,
        "timestamp": "2025-12-17T17:50:17.972755+00:00",
        "meta_object_name": "STARLINK-35811",
        "meta_object_id": "2025-270J",
        "meta_epoch": "2025-12-17T04:56:58.971840",
        "meta_mean_motion": 15.40721289,
        "meta_eccentricity": 0.00021293,
        "meta_inclination": 42.9988,
        "meta_ra_of_asc_node": 166.9785,
        "meta_arg_of_pericenter": 270.0443,
        "meta_mean_anomaly": 90.017,
        "meta_ephemeris_type": 0,
        "meta_classification_type": "U",
        "meta_norad_cat_id": 66596,
        "meta_element_set_no": 999,
        "meta_rev_at_epoch": 514,
        "meta_bstar": 0.00071812816,
        "meta_mean_motion_dot": 0.00029834,
        "meta_mean_motion_ddot": 0,
        "tle_line1": "1 66596U 25270J   25351.20623810  .00029834  00000+0  71813-3 0  9994",
        "tle_line2": "2 66596  42.9988 166.9785 0002129 270.0443  90.0170 15.40721289  5146"
      },
      "geometry": {
        "type": "Point",
        "coordinates": [
          -89.50953030816584,
          41.76306053581623
        ]
      }
    },
    {
      "type": "Feature",
      "properties": {
        "norad_id": 66597,
        "name": "STARLINK-35820",
        "group": "last-30-days",
        "lat": 18.667197415848864,
        "lon": -37.49585673001638,
        "alt_km": 441.70175493258466,
        "timestamp": "2025-12-17T17:50:17.972768+00:00",
        "meta_object_name": "STARLINK-35820",
        "meta_object_id": "2025-270K",
        "meta_epoch": "2025-12-17T08:00:04.999680",
        "meta_mean_motion": 15.40670973,
        "meta_eccentricity": 0.00017495,
        "meta_inclination": 42.9991,
        "meta_ra_of_asc_node": 166.1242,
        "meta_arg_of_pericenter": 270.9726,
        "meta_mean_anomaly": 124.9195,
        "meta_ephemeris_type": 0,
        "meta_classification_type": "U",
        "meta_norad_cat_id": 66597,
        "meta_element_set_no": 999,
        "meta_rev_at_epoch": 524,
        "meta_bstar": 0.0010323841,
        "meta_mean_motion_dot": 0.00043024,
        "meta_mean_motion_ddot": 0,
        "tle_line1": "1 66597U 25270K   25351.33339120  .00043024  00000+0  10324-2 0  9993",
        "tle_line2": "2 66597  42.9991 166.1242 0001749 270.9726 124.9195 15.40670973  5249"
      },
      "geometry": {
        "type": "Point",
        "coordinates": [
          -37.49585673001638,
          18.667197415848864
        ]
      }
    },
    {
      "type": "Feature",
      "properties": {
        "norad_id": 66598,
        "name": "STARLINK-35981",
        "group": "last-30-days",
        "lat": -39.26979368347276,
        "lon": 102.08316383282413,
        "alt_km": 416.0501864153239,
        "timestamp": "2025-12-17T17:50:17.972779+00:00",
        "meta_object_name": "STARLINK-35981",
        "meta_object_id": "2025-270L",
        "meta_epoch": "2025-12-15T05:50:49.994016",
        "meta_mean_motion": 15.50578636,
        "meta_eccentricity": 0.00015186,
        "meta_inclination": 42.999,
        "meta_ra_of_asc_node": 178.0473,
        "meta_arg_of_pericenter": 290.6463,
        "meta_mean_anomaly": 69.4235,
        "meta_ephemeris_type": 0,
        "meta_classification_type": "U",
        "meta_norad_cat_id": 66598,
        "meta_element_set_no": 999,
        "meta_rev_at_epoch": 457,
        "meta_bstar": 0.001433442,
        "meta_mean_motion_dot": 0.00084665,
        "meta_mean_motion_ddot": 0,
        "tle_line1": "1 66598U 25270L   25349.24363419  .00084665  00000+0  14334-2 0  9990",
        "tle_line2": "2 66598  42.9990 178.0473 0001518 290.6463  69.4235 15.50578636  4575"
      },
      "geometry": {
        "type": "Point",
        "coordinates": [
          102.08316383282413,
          -39.26979368347276
        ]
      }
    },
    {
      "type": "Feature",
      "properties": {
        "norad_id": 66599,
        "name": "STARLINK-35930",
        "group": "last-30-days",
        "lat": -39.21816163852459,
        "lon": 102.2791601225276,
        "alt_km": 417.5062864899819,
        "timestamp": "2025-12-17T17:50:17.972789+00:00",
        "meta_object_name": "STARLINK-35930",
        "meta_object_id": "2025-270M",
        "meta_epoch": "2025-12-16T23:34:46.927776",
        "meta_mean_motion": 15.50588241,
        "meta_eccentricity": 8.665e-05,
        "meta_inclination": 42.9988,
        "meta_ra_of_asc_node": 167.8741,
        "meta_arg_of_pericenter": 264.3242,
        "meta_mean_anomaly": 95.7519,
        "meta_ephemeris_type": 0,
        "meta_classification_type": "U",
        "meta_norad_cat_id": 66599,
        "meta_element_set_no": 999,
        "meta_rev_at_epoch": 500,
        "meta_bstar": 0.00065130445,
        "meta_mean_motion_dot": 0.00038065,
        "meta_mean_motion_ddot": 0,
        "tle_line1": "1 66599U 25270M   25350.98248759  .00038065  00000+0  65130-3 0  9997",
        "tle_line2": "2 66599  42.9988 167.8741 0000866 264.3242  95.7519 15.50588241  5004"
      },
      "geometry": {
        "type": "Point",
        "coordinates": [
          102.2791601225276,
          -39.21816163852459
        ]
      }
    },
    {
      "type": "Feature",
      "properties": {
        "norad_id": 66600,
        "name": "STARLINK-35980",
        "group": "last-30-days",
        "lat": -40.63558336857157,
        "lon": 96.36581971428221,
        "alt_km": 421.64809508618873,
        "timestamp": "2025-12-17T17:50:17.972800+00:00",
        "meta_object_name": "STARLINK-35980",
        "meta_object_id": "2025-270N",
        "meta_epoch": "2025-12-16T23:34:47.094528",
        "meta_mean_motion": 15.49045364,
        "meta_eccentricity": 0.00033621,
        "meta_inclination": 42.9992,
        "meta_ra_of_asc_node": 167.874,
        "meta_arg_of_pericenter": 312.5878,
        "meta_mean_anomaly": 47.4698,
        "meta_ephemeris_type": 0,
        "meta_classification_type": "U",
        "meta_norad_cat_id": 66600,
        "meta_element_set_no": 999,
        "meta_rev_at_epoch": 490,
        "meta_bstar": -0.0034153353,
        "meta_mean_motion_dot": -0.00185712,
        "meta_mean_motion_ddot": 0,
        "tle_line1": "1 66600U 25270N   25350.98248952 -.00185712  00000+0 -34153-2 0  9999",
        "tle_line2": "2 66600  42.9992 167.8740 0003362 312.5878  47.4698 15.49045364  4908"
      },
      "geometry": {
        "type": "Point",
        "coordinates": [
          96.36581971428221,
          -40.63558336857157
        ]
      }
    },
    {
      "type": "Feature",
      "properties": {
        "norad_id": 66601,
        "name": "STARLINK-35978",
        "group": "last-30-days",
        "lat": -6.3380619993280405,
        "lon": -9.48225840131392,
        "alt_km": 443.9418531495521,
        "timestamp": "2025-12-17T17:50:17.972812+00:00",
        "meta_object_name": "STARLINK-35978",
        "meta_object_id": "2025-270P",
        "meta_epoch": "2025-12-17T08:00:04.999680",
        "meta_mean_motion": 15.40684322,
        "meta_eccentricity": 0.00018011,
        "meta_inclination": 42.9989,
        "meta_ra_of_asc_node": 166.0343,
        "meta_arg_of_pericenter": 247.1478,
        "meta_mean_anomaly": 186.0328,
        "meta_ephemeris_type": 0,
        "meta_classification_type": "U",
        "meta_norad_cat_id": 66601,
        "meta_element_set_no": 999,
        "meta_rev_at_epoch": 497,
        "meta_bstar": 0.0010741982,
        "meta_mean_motion_dot": 0.00044809,
        "meta_mean_motion_ddot": 0,
        "tle_line1": "1 66601U 25270P   25351.33339120  .00044809  00000+0  10742-2 0  9995",
        "tle_line2": "2 66601  42.9989 166.0343 0001801 247.1478 186.0328 15.40684322  4971"
      },
      "geometry": {
        "type": "Point",
        "coordinates": [
          -9.48225840131392,
          -6.3380619993280405
        ]
      }
    },
    {
      "type": "Feature",
      "properties": {
        "norad_id": 66602,
        "name": "STARLINK-36050",
        "group": "last-30-days",
        "lat": 38.26368649889201,
        "lon": -73.97214200281012,
        "alt_km": 438.7633433271303,
        "timestamp": "2025-12-17T17:50:17.972823+00:00",
        "meta_object_name": "STARLINK-36050",
        "meta_object_id": "2025-270Q",
        "meta_epoch": "2025-12-17T00:00:02.999808",
        "meta_mean_motion": 15.40662628,
        "meta_eccentricity": 0.00015872,
        "meta_inclination": 42.9991,
        "meta_ra_of_asc_node": 168.1374,
        "meta_arg_of_pericenter": 271.3119,
        "meta_mean_anomaly": 36.1009,
        "meta_ephemeris_type": 0,
        "meta_classification_type": "U",
        "meta_norad_cat_id": 66602,
        "meta_element_set_no": 999,
        "meta_rev_at_epoch": 498,
        "meta_bstar": 0.0017064267,
        "meta_mean_motion_dot": 0.00071561,
        "meta_mean_motion_ddot": 0,
        "tle_line1": "1 66602U 25270Q   25351.00003472  .00071561  00000+0  17064-2 0  9997",
        "tle_line2": "2 66602  42.9991 168.1374 0001587 271.3119  36.1009 15.40662628  4981"
      },
      "geometry": {
        "type": "Point",
        "coordinates": [
          -73.97214200281012,
          38.26368649889201
        ]
      }
    }
  ]
}